NORAD_CAT_ID,OBJECT_NAME,OBJECT_TYPE,EPOCH,MEAN_MOTION,ECCENTRICITY,INCLINATION,RA_OF_ASC_NODE,ARG_OF_PERICENTER,MEAN_ANOMALY,BSTAR,MEAN_MOTION_DOT,MEAN_MOTION_DDOT,TLE_LINE0,TLE_LINE1,TLE_LINE2,SEMIMAJOR_AXIS,PERIOD,APOGEE,PERIGEE,DECAYED
50161.0,STARLINK-3304,PAYLOAD,2023-06-11 19:47:08,15.08842446,0.0001213,53.2174,76.6677,88.7792,271.3339,0.00012104,1.639e-05,0.0,0 STARLINK-3304,1 50161U 21125F   23162.82440022  .00001639  00000-0  12104-3 0  9990,2 50161  53.2174  76.6677 0001213  88.7792 271.3339 15.08842446 85209,6917.873,95.437,540.577,538.899,0.0
50161.0,STARLINK-3304,PAYLOAD,2023-06-12 00:33:17,15.08838333,0.0001138,53.2175,75.7754,94.3055,265.8067,0.00030664,4.595e-05,0.0,0 STARLINK-3304,1 50161U 21125F   23163.02311796  .00004595  00000-0  30664-3 0  9993,2 50161  53.2175  75.7754 0001138  94.3055 265.8067 15.08838333 84752,6917.885,95.438,540.538,538.963,0.0
50161.0,STARLINK-3304,PAYLOAD,2023-06-12 11:40:59,15.08839845,0.0001144,53.2177,73.6937,90.9902,269.1221,-2.5657e-06,-3.29e-06,0.0,0 STARLINK-3304,1 50161U 21125F   23163.48680391 -.00000329  00000-0 -25657-5 0  9994,2 50161  53.2177  73.6937 0001144  90.9902 269.1221 15.08839845 85304,6917.881,95.438,540.537,538.954,0.0
50161.0,STARLINK-3304,PAYLOAD,2023-06-13 03:34:51,15.08838597,0.0001097,53.2176,70.7202,92.5672,267.5446,3.8183e-05,3.2e-06,0.0,0 STARLINK-3304,1 50161U 21125F   23164.14920424  .00000320  00000-0  38183-4 0  9998,2 50161  53.2176  70.7202 0001097  92.5672 267.5446 15.08838597 85400,6917.885,95.438,540.509,538.991,0.0
50161.0,STARLINK-3304,PAYLOAD,2023-06-14 00:14:52,15.08838106,9.15e-05,53.2174,66.8548,85.4898,274.6198,-2.6543e-05,-7.1e-06,0.0,0 STARLINK-3304,1 50161U 21125F   23165.01032622 -.00000710  00000-0 -26543-4 0  9991,2 50161  53.2174  66.8548 0000915  85.4898 274.6198 15.08838106 85056,6917.886,95.438,540.384,539.118,0.0
50161.0,STARLINK-3304,PAYLOAD,2023-06-14 17:44:06,15.08831953,9.69e-05,53.2181,63.5827,88.9685,271.1418,2.1698e-05,5.8e-07,0.0,0 STARLINK-3304,1 50161U 21125F   23165.73896989  .00000058  00000-0  21698-4 0  9993,2 50161  53.2181  63.5827 0000969  88.9685 271.1418 15.08831953 85644,6917.905,95.438,540.44,539.1,0.0
50161.0,STARLINK-3304,PAYLOAD,2023-06-15 00:05:39,15.08838206,0.0001068,53.2181,62.3932,95.2546,264.8568,6.6749e-05,7.75e-06,0.0,0 STARLINK-3304,1 50161U 21125F   23166.00392524  .00000775  00000-0  66749-4 0  9992,2 50161  53.2181  62.3932 0001068  95.2546 264.8568 15.08838206 85683,6917.886,95.438,540.49,539.012,0.0
50161.0,STARLINK-3304,PAYLOAD,2023-06-15 17:34:54,15.08837066,0.0001091,53.2182,59.1252,97.5887,262.5229,4.4618e-06,-2.17e-06,0.0,0 STARLINK-3304,1 50161U 21125F   23166.73257055 -.00000217  00000-0  44618-5 0  9995,2 50161  53.2182  59.1252 0001091  97.5887 262.5229 15.08837066 85314,6917.889,95.438,540.509,539.0,0.0
50161.0,STARLINK-3304,PAYLOAD,2023-06-16 09:28:44,15.08843929,9.75e-05,53.2179,56.1515,94.886,265.2243,3.0853e-05,2.03e-06,0.0,0 STARLINK-3304,1 50161U 21125F   23167.39496515  .00000203  00000-0  30853-4 0  9993,2 50161  53.2179  56.1515 0000975  94.8860 265.2243 15.08843929 85412,6917.868,95.437,540.408,539.059,0.0
50161.0,STARLINK-3304,PAYLOAD,2023-06-16 17:25:40,15.08844404,9.71e-05,53.2174,54.6638,98.2482,261.862,7.6644e-05,9.32e-06,0.0,0 STARLINK-3304,1 50161U 21125F   23167.72616331  .00000932  00000-0  76644-4 0  9997,2 50161  53.2174  54.6638 0000971  98.2482 261.8620 15.08844404 85948,6917.867,95.437,540.404,539.06,0.0
50161.0,STARLINK-3304,PAYLOAD,2023-06-17 01:22:35,15.08852621,0.0001098,53.2178,53.1771,101.4249,258.6866,0.00013469,1.857e-05,0.0,0 STARLINK-3304,1 50161U 21125F   23168.05735473  .00001857  00000-0  13469-3 0  9995,2 50161  53.2178  53.1771 0001098 101.4249 258.6866 15.08852621 85512,6917.842,95.437,540.466,538.947,0.0
50161.0,STARLINK-3304,PAYLOAD,2023-06-17 09:19:32,15.08833266,0.0001935,53.2167,51.6878,75.2134,284.9073,1.6936e-05,-1.9e-07,0.0,0 STARLINK-3304,1 50161U 21125F   23168.38857325 -.00000019  00000-0  16936-4 0  9995,2 50161  53.2167  51.6878 0001935  75.2134 284.9073 15.08833266 85563,6917.901,95.438,541.105,538.427,0.0
50161.0,STARLINK-3304,PAYLOAD,2023-06-17 17:16:29,15.08817832,8.43e-05,53.2173,50.2022,85.8028,274.306,-0.00017975,-3.145e-05,0.0,0 STARLINK-3304,1 50161U 21125F   23168.71978780 -.00003145  00000-0 -17975-3 0  9998,2 50161  53.2173  50.2022 0000843  85.8028 274.3060 15.08817832 85618,6917.948,95.439,540.396,539.23,0.0
50161.0,STARLINK-3304,PAYLOAD,2023-06-17 22:02:38,15.08822851,0.0001039,53.2177,49.31,83.7175,276.3935,-0.00013253,-2.395e-05,0.0,0 STARLINK-3304,1 50161U 21125F   23168.91850581 -.00002395  00000-0 -13253-3 0  9999,2 50161  53.2177  49.3100 0001039  83.7175 276.3935 15.08822851 85649,6917.933,95.439,540.517,539.079,0.0
50161.0,STARLINK-3304,PAYLOAD,2023-06-18 09:10:20,15.08831403,9.27e-05,53.2178,47.2288,87.1703,272.9396,-5.2874e-05,-1.129e-05,0.0,0 STARLINK-3304,1 50161U 21125F   23169.38218123 -.00001129  00000-0 -52874-4 0  9998,2 50161  53.2178  47.2288 0000927  87.1703 272.9396 15.08831403 85718,6917.907,95.438,540.413,539.13,0.0
50161.0,STARLINK-3304,PAYLOAD,2023-06-18 18:42:38,15.08840121,9.13e-05,53.2182,45.4446,86.5468,273.5629,3.3358e-05,2.43e-06,0.0,0 STARLINK-3304,1 50161U 21125F   23169.77961488  .00000243  00000-0  33358-4 0  9990,2 50161  53.2182  45.4446 0000913  86.5468 273.5629 15.08840121 86258,6917.88,95.438,540.377,539.113,0.0
50161.0,STARLINK-3304,PAYLOAD,2023-06-19 01:04:10,15.08850963,8.88e-05,53.2179,44.2548,89.2862,270.8232,5.9795e-05,6.64e-06,0.0,0 STARLINK-3304,1 50161U 21125F   23170.04456775  .00000664  00000-0  59795-4 0  9990,2 50161  53.2179  44.2548 0000888  89.2862 270.8232 15.08850963 85819,6917.847,95.437,540.326,539.098,0.0
50161.0,STARLINK-3304,PAYLOAD,2023-06-19 09:01:06,15.08846877,8.84e-05,53.2172,42.7686,83.4212,276.6881,0.00016886,2.401e-05,0.0,0 STARLINK-3304,1 50161U 21125F   23170.37577229  .00002401  00000-0  16886-3 0  9998,2 50161  53.2172  42.7686 0000884  83.4212 276.6881 15.08846877 85867,6917.859,95.437,540.336,539.113,0.0
50161.0,STARLINK-3304,PAYLOAD,2023-06-20 08:51:53,15.08848612,0.0001142,53.2175,38.3067,80.3817,279.7304,0.00025346,3.749e-05,0.0,0 STARLINK-3304,1 50161U 21125F   23171.36937354  .00003749  00000-0  25346-3 0  9994,2 50161  53.2175  38.3067 0001142  80.3817 279.7304 15.08848612 86010,6917.854,95.437,540.509,538.929,0.0
50161.0,STARLINK-3304,PAYLOAD,2023-06-20 19:59:35,15.08846957,0.000107,53.2171,36.2237,126.8507,233.2583,0.00012747,1.742e-05,0.0,0 STARLINK-3304,1 50161U 21125F   23171.83305059  .00001742  00000-0  12747-3 0  9999,2 50161  53.2171  36.2237 0001070 126.8507 233.2583 15.08846957 86568,6917.859,95.437,540.464,538.984,0.0
50161.0,STARLINK-3304,PAYLOAD,2023-06-21 00:45:44,15.08850533,9.87e-05,53.2176,35.3334,109.5982,250.5117,0.00010462,1.378e-05,0.0,0 STARLINK-3304,1 50161U 21125F   23172.03176918  .00001378  00000-0  10462-3 0  9999,2 50161  53.2176  35.3334 0000987 109.5982 250.5117 15.08850533 86595,6917.848,95.437,540.396,539.03,0.0
50161.0,STARLINK-3304,PAYLOAD,2023-06-21 18:14:59,15.08841274,0.0001077,53.2175,32.0614,114.3897,245.7207,-2.2973e-05,-6.53e-06,0.0,0 STARLINK-3304,1 50161U 21125F   23172.76041234 -.00000653  00000-0 -22973-4 0  9999,2 50161  53.2175  32.0614 0001077 114.3897 245.7207 15.08841274 86227,6917.876,95.437,540.487,538.996,0.0
50161.0,STARLINK-3304,PAYLOAD,2023-06-21 19:50:22,15.08843413,0.0001041,53.2174,31.7643,111.0606,249.0497,9.1944e-06,-1.41e-06,0.0,0 STARLINK-3304,1 50161U 21125F   23172.82665127 -.00000141  00000-0  91944-5 0  9995,2 50161  53.2174  31.7643 0001041 111.0606 249.0497 15.08843413 86716,6917.87,95.437,540.455,539.015,0.0
50161.0,STARLINK-3304,PAYLOAD,2023-06-22 18:05:47,15.08835697,8.2e-05,53.2171,27.6033,93.1374,266.9712,8.401e-05,1.049e-05,0.0,0 STARLINK-3304,1 50161U 21125F   23173.75401677  .00001049  00000-0  84010-4 0  9998,2 50161  53.2171  27.6033 0000820  93.1374 266.9712 15.08835697 86371,6917.894,95.438,540.326,539.191,0.0
50161.0,STARLINK-3304,PAYLOAD,2023-06-23 00:27:19,15.08845025,8.63e-05,53.2175,26.4129,96.6925,263.4166,0.00014605,2.038e-05,0.0,0 STARLINK-3304,1 50161U 21125F   23174.01897192  .00002038  00000-0  14605-3 0  9990,2 50161  53.2175  26.4129 0000863  96.6925 263.4166 15.08845025 86411,6917.865,95.437,540.327,539.133,0.0
50161.0,STARLINK-3304,PAYLOAD,2023-06-23 17:56:34,15.08835052,8.8e-05,53.2176,23.1421,90.253,269.8563,-3.1347e-06,-3.38e-06,0.0,0 STARLINK-3304,1 50161U 21125F   23174.74761825 -.00000338  00000-0 -31347-5 0  9990,2 50161  53.2176  23.1421 0000880  90.2530 269.8563 15.08835052 86524,6917.896,95.438,540.369,539.152,0.0
50161.0,STARLINK-3304,PAYLOAD,2023-06-24 00:18:06,15.08842493,8.98e-05,53.2176,21.9537,99.3548,260.7546,9.9894e-05,1.303e-05,0.0,0 STARLINK-3304,1 50161U 21125F   23175.01257415  .00001303  00000-0  99894-4 0  9997,2 50161  53.2176  21.9537 0000898  99.3548 260.7546 15.08842493 86568,6917.873,95.437,540.359,539.117,0.0
50161.0,STARLINK-3304,PAYLOAD,2023-06-24 06:39:39,15.08837158,6.78e-05,53.216,20.7618,76.4699,283.6369,4.2009e-05,3.81e-06,0.0,0 STARLINK-3304,1 50161U 21125F   23175.27753706  .00000381  00000-0  42009-4 0  9990,2 50161  53.2160  20.7618 0000678  76.4699 283.6369 15.08837158 86601,6917.889,95.438,540.223,539.285,0.0
50161.0,STARLINK-3304,PAYLOAD,2023-06-25 00:08:53,15.08848651,9.24e-05,53.2181,17.492,89.7482,270.3616,9.6059e-05,1.242e-05,0.0,0 STARLINK-3304,1 50161U 21125F   23176.00617310  .00001242  00000-0  96059-4 0  9993,2 50161  53.2181  17.4920 0000924  89.7482 270.3616 15.08848651 86714,6917.854,95.437,540.358,539.08,0.0
50161.0,STARLINK-3304,PAYLOAD,2023-06-25 14:27:22,15.08836439,8.5e-05,53.2165,14.8127,101.5914,258.5174,9.9986e-05,1.304e-05,0.0,0 STARLINK-3304,1 50161U 21125F   23176.60233958  .00001304  00000-0  99986-4 0  9992,2 50161  53.2165  14.8127 0000850 101.5914 258.5174 15.08836439 86805,6917.891,95.438,540.344,539.168,0.0
